#aV2007 12 19  0  0   .00000000      96 DD+AD WGS84 FIT  NGA
## 1458 259200.00000000   900.00000000 54453  .0000000000000
+   31     1  2  3  4  5  6  7  8  9 10 11 12 13 14 15 16 17
+         18 19 20 21 22 23 24 25 26 27 28 30 31 32  0  0  0
+          0  0  0  0  0  0  0  0  0  0  0  0  0  0  0  0  0
+          0  0  0  0  0  0  0  0  0  0  0  0  0  0  0  0  0
+          0  0  0  0  0  0  0  0  0  0  0  0  0  0  0  0  0
++         0  0  0  0  0  0  0  0  0  0  0  0  0  0  0  0  0
++         0  0  0  0  0  0  0  0  0  0  0  0  0  0  0  0  0
++         0  0  0  0  0  0  0  0  0  0  0  0  0  0  0  0  0
++         0  0  0  0  0  0  0  0  0  0  0  0  0  0  0  0  0
++         0  0  0  0  0  0  0  0  0  0  0  0  0  0  0  0  0
%c cc cc ccc ccc cccc cccc cccc cccc ccccc ccccc ccccc ccccc
%c cc cc ccc ccc cccc cccc cccc cccc ccccc ccccc ccccc ccccc
%f  0.0000000  0.000000000  0.00000000000  0.000000000000000
%f  0.0000000  0.000000000  0.00000000000  0.000000000000000
%i    0    0    0    0      0      0      0      0         0
%i    0    0    0    0      0      0      0      0         0
/*      NGA, ST. LOUIS,MO.                                  
/*   EPHEMERIS COMPUTED FROM  3 DAYS OF DATA                
/* CCCCCCCCCCCCCCCCCCCCCCCCCCCCCCCCCCCCCCCCCCCCCCCCCCCCCCCCC
/* CCCCCCCCCCCCCCCCCCCCCCCCCCCCCCCCCCCCCCCCCCCCCCCCCCCCCCCCC
*  2007 12 19 18 30   .00000000                                                 
P  1   1202.029574  14615.231452  22366.105750    173.591170                    
V  1 -27753.497410   1113.805561    698.790359       .022370                    
P  2 -11922.756055 -23250.140555   5448.709443    159.622572                    
V  2   6574.212563   4020.170975  30177.562488       .029008                    
P  3  12654.426661  12756.427923 -19899.635715    160.575773                    
V  3 -24065.630027   6039.345647 -11227.500765       .054671                    
P  4  -1255.667073 -21372.433901  15394.242669    -39.211051                    
V  4  13463.100150  14877.107435  21994.409376      -.052254                    
P  5 -16954.050172   5755.681675  19313.054992    605.096879                    
V  5   6914.532707 -24282.088905  13268.294941       .197312                    
P  6 -24993.290650   7246.392041  -5202.102458    184.303135                    
V  6  -7267.876059  -2646.632461  30169.437884      -.127434                    
P  7 -23213.277254   9793.383196  -8120.821502    -20.952907                    
V  7 -11197.029747  -1669.161383  28789.992036       .388965                    
P  8   6050.787732 -15864.150355 -20387.193645   -134.008088                    
V  8  14724.978063  21156.286628 -12602.365371      -.012828                    
P  9 -19924.146457 -11884.346826  12477.432836    101.757548                    
V  9  -8505.124845 -14592.948113 -26029.895049       .017002                    
P 10  -5400.900900 -18183.161496 -18575.409248   -178.951480                    
V 10  11678.588262 -20382.968606  16988.209119      -.117704                    
P 11  22182.255114   7046.678587  12934.713279     26.666405                    
V 11   9425.802501  14296.899306 -23373.349012       .002227                    
P 12 -15943.756854   -798.897606  21307.255958   -351.867894                    
V 12  10609.086246 -24673.163496   7112.086906      -.011020                    
P 13  24447.309721  -6549.414097  -8114.331122    228.930809                    
V 13  10203.994600   1075.435452  30283.199655       .024260                    
P 14 -11129.677222  13835.710534  19821.746495   -311.952752                    
V 14 -24908.596848    810.739643 -14717.580697       .027712                    
P 15 -21609.964508  -7322.429326 -13549.045614    -71.049268                    
V 15  16934.563669  -4102.387021 -24755.399060       .008359                    
P 16   1350.612780  21609.167820 -15198.252920    129.429233                    
V 16 -10264.237906  16691.672977  22877.281322       .012542                    
P 17  11980.031985 -14296.080838  18870.355049     46.234330                    
V 17  24021.072577   -528.372200 -15809.114594      -.008380                    
P 18 -17261.336366  16414.607404 -11207.512286   -218.210849                    
V 18   3921.001036 -14413.442877 -27088.546023       .025686                    
P 19  21513.204457   8610.467667 -13037.666094     12.824067                    
V 19 -16572.287737   2711.485383 -25236.472377       .018098                    
P 20  16899.296556  -2498.739275  20220.898255    124.196209                    
V 20  -9412.772513  24221.620310  10847.003957      -.007094                    
P 21 -13838.013749   7412.305548 -21291.440180     75.008311                    
V 21 -15328.567950 -22787.113531   1425.917581      -.005637                    
P 22 -11142.871414  24049.670555   1497.513708    205.433677                    
V 22  -3673.960413     42.248269 -31416.097771       .007627                    
P 23  26248.835396    790.001867   4672.236376    319.290695                    
V 23  -5736.471722   2793.322201  31098.562106       .032014                    
P 24 -18391.685130  -4849.604401 -18235.945716     55.277345                    
V 24 -11153.944844 -20935.396123  16938.747411       .032189                    
P 25  16633.140077  -2237.520706 -20182.852174    492.583922                    
V 25  16469.509983  20774.295403  11223.399529       .037585                    
P 26 -19353.147113  -9600.843668 -16274.290130    130.630755                    
V 26  19468.206131  -1788.274028 -22206.856507       .113513                    
P 27  12520.334081  -7950.460708 -21379.510626    155.236931                    
V 27  17940.353267  22425.307078   1917.548519       .024843                    
P 28  12350.114141 -23239.439682  -1279.085071    -12.296978                    
V 28   1852.118617   3208.322884 -31975.539481      -.006580                    
P 30 -17247.064103  12108.451932  15775.993043     56.709486                    
V 30   5714.192013 -20052.122468  21291.567044       .014242                    
P 31   3872.402426  22221.689388  14162.754630     -2.013095                    
V 31 -11933.436016 -13171.912837  24363.536890      -.015027                    
P 32  -5025.225589  24014.247302  10829.099561    176.541369                    
V 32  -8054.196952  10380.155960 -27805.397126       .117816                    
EOF
